AETHER-2                
1 58299U 23174AV  26068.71793741  .00008341  00000+0  26166-3 0  9990
2 58299  97.3931 151.9008 0008630 139.5247 220.6639 15.33264165129982
STARLINK-32897          
1 62967U 25029V   26068.71808384  .00016355  00000+0  56298-3 0  9991
2 62967  53.1597 232.2028 0001685  20.4546 339.6522 15.30207132 61328
